[
    {
        "Altitude(m)": 566032.8455301686,
        "Argument of Periapsis(deg)": -0.022603160782972403,
        "Eccentricity": 0.0,
        "Inclination(deg)": 97.0,
        "Latitude(deg)": 20.07861315984244,
        "Longitude(deg)": -129.78652349015186,
        "Mean Anomaly(deg)": 159.79004326918752,
        "RAAN(deg)": 150.0059470536185,
        "Satellite Name": "Starlink Shell 3 1894",
        "Satellite Number": 1894,
        "Semi-Major Axis(m)": 6938478.169268562,
        "Time(s)": 570
    },
    {
        "Altitude(m)": 565983.6833264515,
        "Argument of Periapsis(deg)": -0.02299970746337543,
        "Eccentricity": 0.0,
        "Inclination(deg)": 97.0,
        "Latitude(deg)": 19.455277791103008,
        "Longitude(deg)": -129.91423303272762,
        "Mean Anomaly(deg)": 160.4155194668925,
        "RAAN(deg)": 150.00605138789254,
        "Satellite Name": "Starlink Shell 3 1894",
        "Satellite Number": 1894,
        "Semi-Major Axis(m)": 6938478.169268562,
        "Time(s)": 580
    },
    {
        "Altitude(m)": 565938.1477130242,
        "Argument of Periapsis(deg)": -0.023396254143778456,
        "Eccentricity": 0.0,
        "Inclination(deg)": 97.0,
        "Latitude(deg)": 18.83186157896153,
        "Longitude(deg)": -130.0412891693709,
        "Mean Anomaly(deg)": 161.04099566459763,
        "RAAN(deg)": 150.00615572216654,
        "Satellite Name": "Starlink Shell 3 1894",
        "Satellite Number": 1894,
        "Semi-Major Axis(m)": 6938478.169268562,
        "Time(s)": 590
    },
    {
        "Altitude(m)": 565896.2883388319,
        "Argument of Periapsis(deg)": -0.023792800824181483,
        "Eccentricity": 0.0,
        "Inclination(deg)": 97.0,
        "Latitude(deg)": 18.208367723001896,
        "Longitude(deg)": -130.1677192241442,
        "Mean Anomaly(deg)": 161.66647186230261,
        "RAAN(deg)": 150.00626005644054,
        "Satellite Name": "Starlink Shell 3 1894",
        "Satellite Number": 1894,
        "Semi-Major Axis(m)": 6938478.169268562,
        "Time(s)": 600
    },
    {
        "Altitude(m)": 565858.1531863413,
        "Argument of Periapsis(deg)": -0.024189347504584503,
        "Eccentricity": 0.0,
        "Inclination(deg)": 97.0,
        "Latitude(deg)": 17.58479940532362,
        "Longitude(deg)": -130.29354983829614,
        "Mean Anomaly(deg)": 162.29194806000766,
        "RAAN(deg)": 150.00636439071457,
        "Satellite Name": "Starlink Shell 3 1894",
        "Satellite Number": 1894,
        "Semi-Major Axis(m)": 6938478.169268562,
        "Time(s)": 610
    },
    {
        "Altitude(m)": 565823.7885441375,
        "Argument of Periapsis(deg)": -0.02458589418498753,
        "Eccentricity": 0.0,
        "Inclination(deg)": 97.0,
        "Latitude(deg)": 16.96115979198185,
        "Longitude(deg)": -130.41880650137637,
        "Mean Anomaly(deg)": 162.9174242577127,
        "RAAN(deg)": 150.00646872498857,
        "Satellite Name": "Starlink Shell 3 1894",
        "Satellite Number": 1894,
        "Semi-Major Axis(m)": 6938478.169268562,
        "Time(s)": 620
    },
    {
        "Altitude(m)": 565793.2389803828,
        "Argument of Periapsis(deg)": -0.024982440865390556,
        "Eccentricity": 0.0,
        "Inclination(deg)": 97.0,
        "Latitude(deg)": 16.337452034320023,
        "Longitude(deg)": -130.5435147617849,
        "Mean Anomaly(deg)": 163.54290045541774,
        "RAAN(deg)": 150.0065730592626,
        "Satellite Name": "Starlink Shell 3 1894",
        "Satellite Number": 1894,
        "Semi-Major Axis(m)": 6938478.169268562,
        "Time(s)": 630
    },
    {
        "Altitude(m)": 565766.5473170936,
        "Argument of Periapsis(deg)": -0.025378987545793576,
        "Eccentricity": 0.0,
        "Inclination(deg)": 97.0,
        "Latitude(deg)": 15.713679270196366,
        "Longitude(deg)": -130.66769891443008,
        "Mean Anomaly(deg)": 164.16837665312278,
        "RAAN(deg)": 150.0066773935366,
        "Satellite Name": "Starlink Shell 3 1894",
        "Satellite Number": 1894,
        "Semi-Major Axis(m)": 6938478.169268562,
        "Time(s)": 640
    },
    {
        "Altitude(m)": 565743.7546052883,
        "Argument of Periapsis(deg)": -0.025775534226196602,
        "Eccentricity": 0.0,
        "Inclination(deg)": 97.0,
        "Latitude(deg)": 15.089844625117436,
        "Longitude(deg)": -130.79138320849592,
        "Mean Anomaly(deg)": 164.79385285082782,
        "RAAN(deg)": 150.00678172781056,
        "Satellite Name": "Starlink Shell 3 1894",
        "Satellite Number": 1894,
        "Semi-Major Axis(m)": 6938478.169268562,
        "Time(s)": 650
    },
    {
        "Altitude(m)": 565724.9001009944,
        "Argument of Periapsis(deg)": -0.026172080906599626,
        "Eccentricity": 0.0,
        "Inclination(deg)": 97.0,
        "Latitude(deg)": 14.46595121327846,
        "Longitude(deg)": -130.9145913729804,
        "Mean Anomaly(deg)": 165.41932904853292,
        "RAAN(deg)": 150.0068860620846,
        "Satellite Name": "Starlink Shell 3 1894",
        "Satellite Number": 1894,
        "Semi-Major Axis(m)": 6938478.169268562,
        "Time(s)": 660
    },
    {
        "Altitude(m)": 565710.0212421487,
        "Argument of Periapsis(deg)": -0.026568627587002652,
        "Eccentricity": 0.0,
        "Inclination(deg)": 97.0,
        "Latitude(deg)": 13.84200213851921,
        "Longitude(deg)": -131.03734614105588,
        "Mean Anomaly(deg)": 166.0448052462379,
        "RAAN(deg)": 150.00699039635862,
        "Satellite Name": "Starlink Shell 3 1894",
        "Satellite Number": 1894,
        "Semi-Major Axis(m)": 6938478.169268562,
        "Time(s)": 670
    },
    {
        "Altitude(m)": 565699.1536263832,
        "Argument of Periapsis(deg)": -0.02696517426740568,
        "Eccentricity": 0.0,
        "Inclination(deg)": 97.0,
        "Latitude(deg)": 13.218000495200391,
        "Longitude(deg)": -131.1596702862018,
        "Mean Anomaly(deg)": 166.670281443943,
        "RAAN(deg)": 150.00709473063262,
        "Satellite Name": "Starlink Shell 3 1894",
        "Satellite Number": 1894,
        "Semi-Major Axis(m)": 6938478.169268562,
        "Time(s)": 680
    },
    {
        "Altitude(m)": 565692.3309897495,
        "Argument of Periapsis(deg)": -0.0273617209478087,
        "Eccentricity": 0.0,
        "Inclination(deg)": 97.0,
        "Latitude(deg)": 12.593949369004545,
        "Longitude(deg)": -131.2815861444345,
        "Mean Anomaly(deg)": 167.295757641648,
        "RAAN(deg)": 150.00719906490664,
        "Satellite Name": "Starlink Shell 3 1894",
        "Satellite Number": 1894,
        "Semi-Major Axis(m)": 6938478.169268562,
        "Time(s)": 690
    },
    {
        "Altitude(m)": 565689.5851863223,
        "Argument of Periapsis(deg)": -0.027758267628211725,
        "Eccentricity": 0.0,
        "Inclination(deg)": 97.0,
        "Latitude(deg)": 11.969851837665685,
        "Longitude(deg)": -131.40311513557748,
        "Mean Anomaly(deg)": 167.92123383935305,
        "RAAN(deg)": 150.00730339918064,
        "Satellite Name": "Starlink Shell 3 1894",
        "Satellite Number": 1894,
        "Semi-Major Axis(m)": 6938478.169268562,
        "Time(s)": 700
    },
    {
        "Altitude(m)": 565690.946168808,
        "Argument of Periapsis(deg)": -0.028154814308614752,
        "Eccentricity": 0.0,
        "Inclination(deg)": 97.0,
        "Latitude(deg)": 11.345710971634789,
        "Longitude(deg)": -131.524278796508,
        "Mean Anomaly(deg)": 168.54671003705812,
        "RAAN(deg)": 150.00740773345464,
        "Satellite Name": "Starlink Shell 3 1894",
        "Satellite Number": 1894,
        "Semi-Major Axis(m)": 6938478.169268562,
        "Time(s)": 710
    },
    {
        "Altitude(m)": 565696.4419700111,
        "Argument of Periapsis(deg)": -0.02855136098901778,
        "Eccentricity": 0.0,
        "Inclination(deg)": 97.0,
        "Latitude(deg)": 10.721529834682972,
        "Longitude(deg)": -131.64509830069593,
        "Mean Anomaly(deg)": 169.1721862347632,
        "RAAN(deg)": 150.00751206772864,
        "Satellite Name": "Starlink Shell 3 1894",
        "Satellite Number": 1894,
        "Semi-Major Axis(m)": 6938478.169268562,
        "Time(s)": 720
    },
    {
        "Altitude(m)": 565706.0986853553,
        "Argument of Periapsis(deg)": -0.028947907669420805,
        "Eccentricity": 0.0,
        "Inclination(deg)": 97.0,
        "Latitude(deg)": 10.097311484445756,
        "Longitude(deg)": -131.7655939769659,
        "Mean Anomaly(deg)": 169.79766243246823,
        "RAAN(deg)": 150.00761640200267,
        "Satellite Name": "Starlink Shell 3 1894",
        "Satellite Number": 1894,
        "Semi-Major Axis(m)": 6938478.169268562,
        "Time(s)": 730
    },
    {
        "Altitude(m)": 565719.9404562981,
        "Argument of Periapsis(deg)": -0.029344454349823825,
        "Eccentricity": 0.0,
        "Inclination(deg)": 97.0,
        "Latitude(deg)": 9.47305897291637,
        "Longitude(deg)": -131.88578634041158,
        "Mean Anomaly(deg)": 170.42313863017324,
        "RAAN(deg)": 150.00772073627667,
        "Satellite Name": "Starlink Shell 3 1894",
        "Satellite Number": 1894,
        "Semi-Major Axis(m)": 6938478.169268562,
        "Time(s)": 740
    },
    {
        "Altitude(m)": 565737.9894547834,
        "Argument of Periapsis(deg)": -0.029741001030226845,
        "Eccentricity": 0.0,
        "Inclination(deg)": 97.0,
        "Latitude(deg)": 8.848775346887283,
        "Longitude(deg)": -132.0056956097672,
        "Mean Anomaly(deg)": 171.04861482787823,
        "RAAN(deg)": 150.0078250705507,
        "Satellite Name": "Starlink Shell 3 1894",
        "Satellite Number": 1894,
        "Semi-Major Axis(m)": 6938478.169268562,
        "Time(s)": 750
    }
]